format  = 'OEF2.0'       ! file format
rectype = 'ML'           ! record type (1L/ML)
refsys  = ECLM J2000     ! default reference system
END_OF_HEADER
1862
! Equinoctial elements: a, e*sin(LP), e*cos(LP), tan(i/2)*sin(LN), tan(i/2)*cos(LN), mean long.
 EQU   1.4701327298388172E+00  -0.347997540731213   0.438628682963820    0.032422473937278    0.045038554584727 174.9957243753030
 MJD     54668.051354402 TDT
 MAG  16.060  0.090
! Non-grav parameters: model used, actual number in use, dimension, list of solve for parameters to be currently determined
 LSP   1  2    7    2
! Vector of dynamical parameters
 NGR   0.00000000000000E+00 -3.54457733188955E-05
! RMS    8.52769E-10   2.79074E-08   6.16744E-09   2.99067E-08   2.35322E-08   2.33827E-06   4.58635E-06
! EIG   7.88001E-11   6.53405E-10   1.17774E-09   1.34738E-08   3.18280E-08   3.74320E-08   4.58650E-06
! WEA   0.00002  -0.00359  -0.00059  -0.00140   0.00139  -0.00680   0.99997
 COV   7.272155233223703E-19  1.505413541159995E-17  3.738076053756595E-18
 COV  -1.202087515520350E-17  8.759489567495170E-18  7.007962438067670E-16
 COV   4.452978358386078E-16  7.788224639653145E-16  1.658140878336992E-16
 COV   7.319107066625181E-18  1.576498258722743E-16  6.172793152569489E-14
 COV  -7.556384393112150E-14  3.803728108478595E-17  7.657317281322466E-18
 COV   6.108558601563758E-17  1.239008138699771E-14 -1.233545353301130E-14
 COV   8.944134069260953E-16  3.266556331553112E-16  1.291671470394439E-14
 COV  -2.941784536501012E-14  5.537652588270645E-16  4.343931382302296E-15
 COV   2.927459550948199E-14  5.467515223039149E-12 -8.197187273283071E-12
 COV   2.103462737864029E-11
 NOR   1.581199631014768E+20 -1.706185677717423E+19  9.697989221963766E+18
 NOR  -1.462020013285586E+17  3.498917344549535E+17  1.467975298038636E+17
 NOR  -2.436834631364893E+15  3.129771936335120E+18 -1.706294207798244E+18
 NOR   3.394293819773756E+17 -4.070890342084385E+17 -2.958784958563143E+16
 NOR   1.147059510548205E+14  1.708621384818513E+18 -1.208153606869718E+17
 NOR   1.134895297861279E+17  1.409217718622700E+16 -1.681178022906127E+14
 NOR   8.702402676441368E+16 -1.014699870077873E+17 -3.713513862355220E+15
 NOR  -3.263363588840861E+13  1.227041107403789E+17  4.482543651767306E+15
 NOR   3.090307749568040E+13  2.884603495770143E+14 -1.526813943490797E+11
 NOR   2.644537505793253E+11
!MOID  0.02552    0
!NODES -0.11729  0.18607
